#dP2023  8 26  6  0  0.00000000      96 __u+U ITR00 EXT  IAC
## 2276 540000.00000000   900.00000000 60182 0.2500000000000
+  118   C06C07C08C09C10C11C12C13C14C16C19C20C21C22C23C24C25
+        C26C27C28C29C30C32C33C34C35C36C37C38C39C40C41C42C43
+        C44C45C46E02E03E04E05E07E08E09E10E11E12E13E14E15E18
+        E19E21E24E25E26E27E30E31E33E34E36G01G02G03G04G05G06
+        G07G08G09G10G11G12G13G14G15G16G17G18G19G20G21G22G23
+        G24G25G26G27G28G29G30G31J02J03J04R01R02R03R04R05R07
+        R08R09R11R12R13R14R15R16R17R18R19R20R21R22R24R25  0
++         9  9 10  9 10 10  9 10  9 10  9  8  8  8 10  9  8
++         8  8  8  8  7  8  8  8  8  8  9 10 10 10  8  8  9
++         8  8  9  8 10  8  8  8  8 11  8  8  8  8  7  8  8
++         7  8  8  8  8  8  8  8  8  8  8  8  8  8  7  8  7
++         7  7  7  8  8  8  9  8  8  7  7  8  8  8  7  8  8
++         7  8  8  7  7  8  8  8  9  9  9 10  9  9 10 10  7
++         8  8  8  9  9  8  9  9 10  8  9  9  9  8  9  9  0
%c M  cc GPS ccc cccc cccc cccc cccc ccccc ccccc ccccc ccccc
%c cc cc ccc ccc cccc cccc cccc cccc ccccc ccccc ccccc ccccc
%f  0.0000000  0.000000000  0.00000000000  0.000000000000000
%f  0.0000000  0.000000000  0.00000000000  0.000000000000000
%i    0    0    0    0      0      0      0      0         0
%i    0    0    0    0      0      0      0      0         0
/* IAC                                ULTRA-RAPID PREDICTION
/* S/V CLOCKS ARE ALIGNED TO GNSS TIME                      
/* G:C1WC2W R:C1PC2P E:C1XC5X C:C2IC6I J:C1CC2S             
/* PCV:IGS20_2274 OL/AL:FES2004  NONE     YN ORB:CoN CLK:CoN
*  2023 08 26  9  0  0.00000000
PC06  -1735.692287  34716.865360  24086.864844    936.552536
PC07 -14137.276490  26560.431518 -29507.110461     11.276991
PC08 -16983.883777  37574.021563   8208.848859    373.841437
PC09   3821.654362  38614.543586  17600.038539    245.548035
PC10  -6385.540947  27316.326309 -31226.283601   -157.626813
PC11  11667.656809  23496.783517  -9405.028245    799.015124
PC12  -4755.029714  16655.274800 -21838.673108    903.490875
PC13 -11178.126674  37960.559695  14260.290701    340.936913
PC14   5806.466210  14774.499640  22954.721064    293.541696
PC16  -4150.181927  32612.570299  26817.552942    -51.866421
PC19 -16038.824971 -10589.797192 -20224.631178   -968.757072
PC20   3248.052419 -16267.742416 -22432.560386    332.868020
PC21 -22295.320775  12535.122319  11195.330257   -956.465943
PC22 -27171.231071   1439.313560  -6268.366031   -334.929195
PC23  16721.492877    687.646869 -22319.688104   -892.253448
PC24  -5970.768808  27002.898453  -3638.520746    324.626198
PC25   8609.200486  18685.617962 -18850.497095    197.535248
PC26 -15244.771530  19737.265549  12474.230510   -168.620499
PC27  12214.819480 -10248.625031  22881.615062    189.953556
PC28  21281.786905   6240.862090  16935.792491    142.230155
PC29 -18972.744196 -20458.505053    639.880670    165.988182
PC30  -4111.884086 -21629.292688  17130.463537     -3.997425
PC32  22253.809967 -12658.783110 -11082.138516   -530.566284
PC33  15966.357342  10592.322207  20278.475407   -947.476667
PC34   5372.297032  22104.422266 -16185.973547    245.492139
PC35 -21590.738889  -5582.998489 -16769.507360    559.893686
PC36  -7644.605447 -19545.587763  18424.755096   -257.399624
PC37  15982.044192 -18711.096715 -13167.156313   -814.295968
PC38 -20548.719350  36704.211136   -224.984390    100.647544
PC39  -7272.352711  28527.290975  30314.605114     -4.493011
PC40 -20265.222925  19779.534092 -31301.900799    -34.229117
PC41  27002.585674  -1006.919376   6999.405441   -884.270586
PC42  -4931.480352  16455.308640  22033.075029   -566.063497
PC43  18470.457481  20875.975939  -1504.390069     36.943596
PC44 -12068.423327  10669.722072 -22800.491280    211.812523
PC45 -16740.665903    -93.386090  22329.517165    -18.363079
PC46   5134.757383 -27010.766987   4901.151187    -79.417522
PE02  -9339.885042  22544.190326 -16740.935073     58.013569
PE03   1716.900252  18082.295693  23363.956957    -49.676795
PE04 -21143.694707 -16825.771010 -12083.064423   -197.860210
PE05 -18816.037260   8806.746780  21086.523029     12.499244
PE07  28348.773922   5879.148504  -6133.116884    -70.157952
PE08  20843.956886  16878.392456  12506.882240   -136.262870
PE09 -28365.265551  -5991.893596   6012.329733   -133.846152
PE10 -15489.416904 -16147.958518 -19396.318293   -558.954837
PE11 -16599.133746  -4630.431139 -24080.685100   2804.346348
PE12 -12127.159474 -24108.489550 -12161.372653   -672.733681
PE13  16546.817652   5462.710266  23924.613378    -19.509027
PE14 -29503.854768  -1162.731445 -13435.225065    322.131349
PE15  11940.499311  24368.773206  11817.697006    -48.130633
PE18  20998.821004    294.475878  10500.286695    457.326629
PE19   1169.530287 -17292.691309 -23991.110187  -1768.396658
PE21  22740.371810 -18947.287563    207.884606   -548.887065
PE24 -23486.383826   3453.524387  17663.786226   -286.644496
PE25 -22904.056450  18748.323165    166.549333     -0.838974
PE26  11217.636846 -17084.762264  21413.935237    203.852668
PE27  23680.074811  -4129.237557 -17268.868559   -134.040637
PE30  10252.672722  13359.616128 -24344.714634   -448.589274
PE31 -10660.353174 -12969.178303  24392.552470     -3.567132
PE33      1.056312 -28608.206998   7627.159492     -1.159923
PE34    452.582980  28740.084808  -7042.188036    -63.597788
PE36 -11412.985274  16365.736367 -21867.100465   -106.680826
PG01  13757.041972  -5005.767331  21790.227506    167.292173
PG02  15872.892575   2165.203713  21712.621398   -561.263673
PG03  22587.893568 -11689.574068   7303.177333   -168.485323
PG04  21656.840235  -2187.157390 -15292.668876    137.047235
PG05 -18649.768397  -1176.892171 -19098.018109   -140.262980
PG06  -5463.026070 -25783.924994  -2798.956319    560.785145
PG07   7030.061880 -20870.857656 -14023.253821     85.089077
PG08  25681.806181   5200.196889   5423.299376   -139.062121
PG09  14177.488078  -9970.212839 -20217.046425    -76.752660
PG10  -4341.656774  18993.467807  18078.276781    -50.813804
PG11 -12321.158779 -18037.021968 -15131.414848   -338.403062
PG12 -23196.759157   7261.216842  10338.515125   -417.362431
PG13 -22856.284701 -13730.238142  -1069.968568    564.796327
PG14   7941.964715 -19932.715872  15569.194157    165.637335
PG15 -25934.240482  -1891.743192   5536.596414     71.380874
PG16  15575.762704   6979.911063 -20766.551535   -463.157269
PG17  -2663.622392 -16839.518172  20770.195990    723.191198
PG18  -5729.657889  22522.386031 -12694.160933   -395.721859
PG19 -11346.283648 -18079.013621  15811.354428    362.817543
PG20 -11116.666675 -10730.437601 -21568.809540    415.221055
PG21  16354.330924   5715.247899  20880.448189    150.092682
PG22   1250.714388 -17711.513777  20298.073412    134.296577
PG23 -15265.057852  20067.313001   8072.940497     59.889294
PG24 -15874.187260    311.336394  20953.530846   -301.050976
PG25 -19594.383057  17655.409277  -1743.553460    464.297489
PG26   6762.556577  14916.675072 -20981.098332    231.394401
PG27  22478.800127  13293.888077  -6175.178758    -28.659451
PG28   5378.811052  26000.444808   -771.928783     -1.964447
PG29 -14947.773994   8158.658072 -20458.498775   -608.439966
PG30    526.367934 -25772.248303  -5678.705563   -493.314219
PG31  10635.046309  21536.624403 -11038.712558   -222.433828
PJ02 -36271.950022  21179.588741    621.663537     -3.068008
PJ03 -20244.112918  23594.871716 -23861.596756     -1.611405
PJ04 -26921.555241  30672.505299  16413.018337     70.496084
PR01  -9899.884323  -9691.654274 -21424.207068     64.275496
PR02 -23672.375609  -3591.325758  -8659.872284    -22.492127
PR03 -23431.100943   4820.603935   8809.579904     84.011490
PR04 -10387.613727  10000.368880  21061.372188    200.224197
PR05   8305.106514  10039.972496  21940.725597    117.946568
PR07  23151.721039  -5087.890922  -9456.537194     63.254194
PR08  10198.138965 -10170.918653 -21007.806313    -72.297759
PR09  11219.589355   2764.001262 -22712.968855    138.772524
PR11  11537.739976 -22732.120484    576.532660   -143.425344
PR12     80.450817 -18332.953591  17772.652982     30.585833
PR13  -9967.457709  -4785.198545  22979.428153    -38.550363
PR14 -15419.638010  14077.963456  14686.526713     25.138288
PR15 -11160.957046  22863.410870  -1869.473742     86.705690
PR16   -304.143984  18493.274681 -17568.910470     18.079920
PR17 -10909.003393   2176.234683 -22952.749407     12.105367
PR18   -259.177816  16608.738015 -19361.074068     98.677364
PR19   8951.538252  22750.081948  -7257.834347   -244.884350
PR20  15320.266246  15489.670967  13299.491488    -98.970125
PR21  10255.261106  -3183.342532  23133.249003    -33.220215
PR22    463.794714 -17378.396599  18688.683299    119.441096
PR24 -16104.570030 -14323.524374 -13649.481601    -21.915549
PR25  11254.372605  -1865.945052  22815.840023     40.798868
EOF
